EUTELSAT 8 WEST B       
1 40875U 15039B   25232.38938260 -.00000083  00000+0  00000+0 0  9995
2 40875   0.0687 341.4171 0003639 166.8513 312.8881  1.00272717 36646
EUTELSAT 9B             
1 41310U 16005A   25232.32143565  .00000045  00000+0  00000+0 0  9991
2 41310   0.0198  55.5119 0001878 135.3054 262.8032  1.00274796 35108
EUTELSAT 65 WEST A      
1 41382U 16014A   25232.37802921 -.00000294  00000+0  00000+0 0  9990
2 41382   0.0679  44.4609 0002070 108.8926 246.4925  1.00271836 34515
EUTELSAT 117 WEST B     
1 41589U 16038B   25231.74350216 -.00000028  00000+0  00000+0 0  9995
2 41589   0.0101 239.4605 0000346 216.4894  23.0392  1.00270409 33689
EUTELSAT 172B           
1 42741U 17029B   25232.49650419 -.00000025  00000+0  00000+0 0  9995
2 42741   0.0194 175.9105 0000148  74.8089  69.0892  1.00268225 30712
EUTELSAT 7C             
1 44334U 19034B   25232.32100230  .00000030  00000+0  00000+0 0  9991
2 44334   0.0733 187.1142 0003076 311.1429 313.2020  1.00270534  3819
EUTELSAT 5 WEST B       
1 44624U 19067A   25232.31866229 -.00000060  00000+0  00000+0 0  9999
2 44624   0.0979 306.3615 0002947 210.0331 282.1816  1.00271711 21420
EUTELSAT KONNECT        
1 45027U 20005B   25232.32100230  .00000031  00000+0  00000+0 0  9992
2 45027   0.0644  98.8310 0001484  84.9294 267.8728  1.00269816 21305
